H-2A R/B                
1 28932U 06002B   26200.41408603  .00004356  00000+0  20821-3 0  9991
2 28932  98.2604 359.1746 0051027 151.7779 208.6235 15.18485106114418
RESURS-DK 1             
1 29228U 06021A   26200.49073612  .00000870  00000+0  54840-4 0  9993
2 29228  69.9302 255.9238 0007370 266.3821  93.6502 15.13327584107465
CZ-4B R/B               
1 29507U 06046C   26200.09348072  .00002098  00000+0  10523-3 0  9994
2 29507  97.5433 244.6030 0032964 168.6677 191.5306 15.17998869 79970
CZ-2C R/B               
1 31114U 07010B   26200.53664555  .00000043  00000+0  39001-4 0  9990
2 31114  98.4121 307.3091 0057728 270.8800  88.5763 14.20282472998436
COSMO-SKYMED 1          
1 31598U 07023A   26200.61625874  .00001672  00000+0  14964-3 0  9999
2 31598  97.8852  32.7469 0001747  99.0749 261.0670 14.97233686 34643
COSMOS 2428             
1 31792U 07029A   26200.49738699  .00000293  00000+0  18293-3 0  9994
2 31792  70.9383 286.6391 0007265  72.7515 287.4401 14.12937306982715
SL-16 R/B               
1 31793U 07029B   26200.58034459  .00000295  00000+0  17737-3 0  9992
2 31793  70.9742 255.1346 0001909 257.9327 263.5250 14.14854265984020
KORONAS-FOTON           
1 33504U 09003A   26200.56935066  .00007610  00000+0  15293-3 0  9993
2 33504  82.4308 138.4649 0011804  48.6662 311.5601 15.46365240966108
CZ-2C R/B               
1 37731U 11030B   26200.61646240  .00000422  00000+0  59563-4 0  9994
2 37731  97.8672 155.4227 0050685 281.3648 252.9072 14.81536791809621
H-2A R/B                
1 38341U 12025E   26200.46710375  .00000790  00000+0  75759-4 0  9994
2 38341  98.4847 178.2810 0042674 240.5508 119.1450 14.95843770767914
SHIJIAN-16 (SJ-16)      
1 39358U 13057A   26200.61282014  .00000537  00000+0  54803-4 0  9996
2 39358  74.9738 295.2677 0015631 154.0272 206.1704 14.92676739691182
SL-4 R/B                
1 39679U 14021B   26199.81422679  .00005995  00000+0  12682-3 0  9997
2 39679  51.6064  55.7601 0089504 221.8175 137.5948 15.42526441676497
ALOS-2                  
1 39766U 14029A   26200.60294314  .00000376  00000+0  57271-4 0  9997
2 39766  97.9229 297.3038 0001592  91.1773 268.9621 14.79472405656372
YAOGAN-29               
1 41038U 15069A   26200.62968140  .00000198  00000+0  30953-4 0  9994
2 41038  98.0014 229.3122 0000313   1.6268 358.4946 14.83107829575437
ASTRO-H (HITOMI)        
1 41337U 16012A   26200.41212056  .00001175  00000+0  63579-4 0  9996
2 41337  30.9975 226.0481 0009660 217.6479 142.3484 15.10641846572166
HXMT (HUIYAN)           
1 42758U 17034A   26200.49495742  .00002063  00000+0  10800-3 0  9997
2 42758  43.0152   3.1095 0031738 347.7704  12.2372 15.18709244502572
SAOCOM 1A               
1 43641U 18076A   26200.60863836  .00000173  00000+0  28357-4 0  9999
2 43641  97.8887  26.8856 0001420  87.0564 273.0812 14.82148655420901
H-2A R/B                
1 43682U 18084L   26200.23599307  .00010996  00000+0  22384-3 0  9998
2 43682  98.8521  86.1545 0020300 285.2984  74.6017 15.46296554426071
SAOCOM 1B               
1 46265U 20059A   26200.63983530 -.00000227  00000+0 -21958-4 0  9997
2 46265  97.8894  26.0130 0001485  83.5406 276.5976 14.82144139318298
CSS (TIANHE)            
1 48274U 21035A   26200.50932682  .00010866  00000+0  14394-3 0  9995
2 48274  41.4683 125.6834 0001983 305.8498  54.2155 15.58197952298216
COSMOS 2550             
1 48865U 21056A   26200.62813208  .00002720  00000+0  88402-4 0  9991
2 48865  67.1440   1.7730 0008534 269.5749  90.4427 15.33853757283696
CZ-2C R/B               
1 52794U 22058K   26200.46326684  .00024060  00000+0  24806-3 0  9997
2 52794  50.1861 355.2840 0030109  40.5876 319.7335 15.64075932230693
CZ-2C R/B               
1 54039U 22132E   26200.45842613  .00042024  00000+0  27843-3 0  9992
2 54039  97.2897 209.0185 0008747 321.9284  38.1362 15.75369600211026
GSLV R/B                
1 54149U 22138AN  26200.33015475  .00001507  00000+0  12655-3 0  9991
2 54149  87.3816 122.1909 0023046  38.5210 321.7661 14.97393976203623
XRISM                   
1 57800U 23137A   26200.19546554  .00002220  00000+0  11825-3 0  9990
2 57800  31.0011 152.2226 0007840 285.9268  74.0507 15.12686798157714
ACS3                    
1 59588U 24077B   26200.19829101  .00003779  00000+0  26179-2 0  9998
2 59588  97.1737 111.8975 0129768  32.2666 328.6357 13.95393023112502
SPACEMOBILE-003         
1 61045U 24163A   26200.28808455  .00001436  00000+0  79094-4 0  9998
2 61045  52.9672 161.8218 0004329 207.1995 152.8773 15.20717853102653
SPACEMOBILE-005         
1 61046U 24163B   26200.20578625  .00002447  00000+0  12446-3 0  9994
2 61046  52.9754 162.1539 0008519 208.1551 151.8984 15.20724362102633
SPACEMOBILE-001         
1 61047U 24163C   26199.28402452 -.00000022  00000+0  13735-4 0  9995
2 61047  52.9715 166.1008 0007094 203.8926 156.1740 15.20703424102499
SPACEMOBILE-002         
1 61048U 24163D   26200.05660354 -.00007112  00000+0 -30578-3 0  9992
2 61048  52.9790 162.5913 0004780 213.4370 146.6323 15.20617345102618
