OBJECT_NAME,OBJECT_ID,EPOCH,MEAN_MOTION,ECCENTRICITY,INCLINATION,RA_OF_ASC_NODE,ARG_OF_PERICENTER,MEAN_ANOMALY,EPHEMERIS_TYPE,CLASSIFICATION_TYPE,NORAD_CAT_ID,ELEMENT_SET_NO,REV_AT_EPOCH,BSTAR,MEAN_MOTION_DOT,MEAN_MOTION_DDOT
H-2A R/B,2006-002B,2026-07-19T09:56:17.032992,15.18485106,.00510273,98.2604,359.1746,151.7779,208.6235,0,U,28932,999,11441,.20821407E-3,.4356E-4,0
RESURS-DK 1,2006-021A,2026-07-19T11:46:39.600768,15.13327584,.00073707,69.9302,255.9238,266.3821,93.6502,0,U,29228,999,10746,.54839828E-4,.87E-5,0
CZ-4B R/B,2006-046C,2026-07-19T02:14:36.734208,15.17998869,.00329648,97.5433,244.6030,168.6677,191.5306,0,U,29507,999,7997,.10523005E-3,.2098E-4,0
CZ-2C R/B,2007-010B,2026-07-19T12:52:46.175520,14.20282472,.00577283,98.4121,307.3091,270.8800,88.5763,0,U,31114,999,99843,.39000604E-4,.43E-6,0
COSMO-SKYMED 1,2007-023A,2026-07-19T14:47:24.755136,14.97233686,.00017473,97.8852,32.7469,99.0749,261.0670,0,U,31598,999,3464,.14963979E-3,.1672E-4,0
COSMOS 2428,2007-029A,2026-07-19T11:56:14.235936,14.12937306,.00072656,70.9383,286.6391,72.7515,287.4401,0,U,31792,999,98271,.18292689E-3,.293E-5,0
SL-16 R/B,2007-029B,2026-07-19T13:55:41.772576,14.14854265,.00019094,70.9742,255.1346,257.9327,263.5250,0,U,31793,999,98402,.17736792E-3,.295E-5,0
KORONAS-FOTON,2009-003A,2026-07-19T13:39:51.897024,15.46365240,.00118044,82.4308,138.4649,48.6662,311.5601,0,U,33504,999,96610,.15293168E-3,.761E-4,0
CZ-2C R/B,2011-030B,2026-07-19T14:47:42.351360,14.81536791,.00506854,97.8672,155.4227,281.3648,252.9072,0,U,37731,999,80962,.59562821E-4,.422E-5,0
H-2A R/B,2012-025E,2026-07-19T11:12:37.764000,14.95843770,.00426745,98.4847,178.2810,240.5508,119.1450,0,U,38341,999,76791,.75759355E-4,.79E-5,0
SHIJIAN-16 (SJ-16),2013-057A,2026-07-19T14:42:27.660096,14.92676739,.00156316,74.9738,295.2677,154.0272,206.1704,0,U,39358,999,69118,.54803197E-4,.537E-5,0
SL-4 R/B,2014-021B,2026-07-18T19:32:29.194656,15.42526441,.00895049,51.6064,55.7601,221.8175,137.5948,0,U,39679,999,67649,.12681891E-3,.5995E-4,0
ALOS-2,2014-029A,2026-07-19T14:28:14.287296,14.79472405,.00015922,97.9229,297.3038,91.1773,268.9621,0,U,39766,999,65637,.5727063E-4,.376E-5,0
YAOGAN-29,2015-069A,2026-07-19T15:06:44.472960,14.83107829,.00003133,98.0014,229.3122,1.6268,358.4946,0,U,41038,999,57543,.30953123E-4,.198E-5,0
ASTRO-H (HITOMI),2016-012A,2026-07-19T09:53:27.216384,15.10641846,.00096603,30.9975,226.0481,217.6479,142.3484,0,U,41337,999,57216,.63579147E-4,.1175E-4,0
HXMT (HUIYAN),2017-034A,2026-07-19T11:52:44.321088,15.18709244,.00317381,43.0152,3.1095,347.7704,12.2372,0,U,42758,999,50257,.10799575E-3,.2063E-4,0
SAOCOM 1A,2018-076A,2026-07-19T14:36:26.354304,14.82148655,.00014203,97.8887,26.8856,87.0564,273.0812,0,U,43641,999,42090,.28357292E-4,.173E-5,0
H-2A R/B,2018-084L,2026-07-19T05:39:49.801248,15.46296554,.00203006,98.8521,86.1545,285.2984,74.6017,0,U,43682,999,42607,.22384339E-3,.10996E-3,0
SAOCOM 1B,2020-059A,2026-07-19T15:21:21.769920,14.82144139,.00014858,97.8894,26.0130,83.5406,276.5976,0,U,46265,999,31829,-.21957978E-4,-.227E-5,0
CSS (TIANHE),2021-035A,2026-07-19T12:13:25.837248,15.58197952,.00019838,41.4683,125.6834,305.8498,54.2155,0,U,48274,999,29821,.14394072E-3,.10866E-3,0
COSMOS 2550,2021-056A,2026-07-19T15:04:30.611712,15.33853757,.0008534,67.1440,1.7730,269.5749,90.4427,0,U,48865,999,28369,.88402451E-4,.272E-4,0
CZ-2C R/B,2022-058K,2026-07-19T11:07:06.254976,15.64075932,.00301094,50.1861,355.2840,40.5876,319.7335,0,U,52794,999,23069,.24805896E-3,.2406E-3,0
CZ-2C R/B,2022-132E,2026-07-19T11:00:08.017632,15.75369600,.00087472,97.2897,209.0185,321.9284,38.1362,0,U,54039,999,21102,.278431E-3,.42024E-3,0
GSLV R/B,2022-138AN,2026-07-19T07:55:25.370400,14.97393976,.00230464,87.3816,122.1909,38.5210,321.7661,0,U,54149,999,20362,.12654852E-3,.1507E-4,0
XRISM,2023-137A,2026-07-19T04:41:28.222656,15.12686798,.00078403,31.0011,152.2226,285.9268,74.0507,0,U,57800,999,15771,.11825372E-3,.222E-4,0
ACS3,2024-077B,2026-07-19T04:45:32.343264,13.95393023,.01297687,97.1737,111.8975,32.2666,328.6357,0,U,59588,999,11250,.26178549E-2,.3779E-4,0
SPACEMOBILE-003,2024-163A,2026-07-19T06:54:50.505120,15.20717853,.00043295,52.9672,161.8218,207.1995,152.8773,0,U,61045,999,10265,.79094198E-4,.1436E-4,0
SPACEMOBILE-005,2024-163B,2026-07-19T04:56:19.932000,15.20724362,.00085199,52.9754,162.1539,208.1551,151.8984,0,U,61046,999,10263,.1244598E-3,.2447E-4,0
SPACEMOBILE-001,2024-163C,2026-07-18T06:48:59.718528,15.20703424,.00070948,52.9715,166.1008,203.8926,156.1740,0,U,61047,999,10249,.13734528E-4,-.22E-6,0
SPACEMOBILE-002,2024-163D,2026-07-19T01:21:30.545856,15.20617345,.00047801,52.9790,162.5913,213.4370,146.6323,0,U,61048,999,10261,-.30577873E-3,-.7112E-4,0
